NORAD_CAT_ID,OBJECT_NAME,OBJECT_TYPE,EPOCH,MEAN_MOTION,ECCENTRICITY,INCLINATION,RA_OF_ASC_NODE,ARG_OF_PERICENTER,MEAN_ANOMALY,BSTAR,MEAN_MOTION_DOT,MEAN_MOTION_DDOT,TLE_LINE0,TLE_LINE1,TLE_LINE2,SEMIMAJOR_AXIS,PERIOD,APOGEE,PERIGEE,DECAYED
53723.0,STARLINK-4705,PAYLOAD,2023-06-06 00:56:09,15.08846657,0.0001349,53.2171,97.5625,93.9319,266.1827,4.2642e-05,3.91e-06,0.0,0 STARLINK-4705,1 53723U 22107Z   23157.03900011  .00000391  00000-0  42642-4 0  9999,2 53723  53.2171  97.5625 0001349  93.9319 266.1827 15.08846657 41834,6917.86,95.437,540.658,538.792,0.0
53723.0,STARLINK-4705,PAYLOAD,2023-06-06 05:42:18,15.08849556,0.0001397,53.2171,96.6694,97.85,262.265,6.8316e-05,8e-06,0.0,0 STARLINK-4705,1 53723U 22107Z   23157.23771633  .00000800  00000-0  68316-4 0  9998,2 53723  53.2171  96.6694 0001397  97.8500 262.2650 15.08849556 42460,6917.851,95.437,540.683,538.75,0.0
53723.0,STARLINK-4705,PAYLOAD,2023-06-06 23:11:34,15.08835129,0.0001479,53.2173,93.3953,104.2277,255.8879,-6.0665e-06,-3.84e-06,0.0,0 STARLINK-4705,1 53723U 22107Z   23157.96636742 -.00000384  00000-0 -60665-5 0  9998,2 53723  53.2173  93.3953 0001479 104.2277 255.8879 15.08835129 41976,6917.895,95.438,540.783,538.737,0.0
53723.0,STARLINK-4705,PAYLOAD,2023-06-07 05:33:06,15.08838267,0.0001493,53.2174,92.2062,108.3457,251.7698,-4.6738e-05,-1.032e-05,0.0,0 STARLINK-4705,1 53723U 22107Z   23158.23132708 -.00001032  00000-0 -46738-4 0  9997,2 53723  53.2174  92.2062 0001493 108.3457 251.7698 15.08838267 42619,6917.886,95.438,540.784,538.718,0.0
53723.0,STARLINK-4705,PAYLOAD,2023-06-08 02:13:07,15.08841787,0.0001191,53.2172,88.3433,89.3769,270.7359,2.1634e-06,-2.53e-06,0.0,0 STARLINK-4705,1 53723U 22107Z   23159.09244513 -.00000253  00000-0  21634-5 0  9992,2 53723  53.2172  88.3433 0001191  89.3769 270.7359 15.08841787 42148,6917.875,95.437,540.564,538.916,0.0
53723.0,STARLINK-4705,PAYLOAD,2023-06-09 05:14:40,15.08846623,0.0001013,53.217,83.2899,84.9896,275.1212,7.8216e-05,9.57e-06,0.0,0 STARLINK-4705,1 53723U 22107Z   23160.21852144  .00000957  00000-0  78216-4 0  9990,2 53723  53.2170  83.2899 0001013  84.9896 275.1212 15.08846623 42311,6917.86,95.437,540.426,539.024,0.0
53723.0,STARLINK-4705,PAYLOAD,2023-06-09 11:36:13,15.08839551,0.0001095,53.2177,82.098,88.6617,271.45,6.7745e-05,7.91e-06,0.0,0 STARLINK-4705,1 53723U 22107Z   23160.48348641  .00000791  00000-0  67745-4 0  9992,2 53723  53.2177  82.0980 0001095  88.6617 271.4500 15.08839551 42959,6917.882,95.438,540.504,538.989,0.0
53723.0,STARLINK-4705,PAYLOAD,2023-06-10 01:54:42,15.08831207,9.81e-05,53.2169,79.4243,92.1397,267.9707,-4.2031e-05,-9.56e-06,0.0,0 STARLINK-4705,1 53723U 22107Z   23161.07965698 -.00000956  00000-0 -42031-4 0  9991,2 53723  53.2169  79.4243 0000981  92.1397 267.9707 15.08831207 42443,6917.907,95.438,540.451,539.094,0.0
53723.0,STARLINK-4705,PAYLOAD,2023-06-10 11:27:00,15.08836646,0.0001135,53.2171,77.6427,89.3816,270.7306,4.9541e-05,5.01e-06,0.0,0 STARLINK-4705,1 53723U 22107Z   23161.47709290  .00000501  00000-0  49541-4 0  9996,2 53723  53.2171  77.6427 0001135  89.3816 270.7306 15.08836646 43109,6917.891,95.438,540.541,538.97,0.0
53723.0,STARLINK-4705,PAYLOAD,2023-06-10 17:48:33,15.08836998,0.0001168,53.2178,76.4535,80.2755,279.8369,2.9536e-05,1.82e-06,0.0,0 STARLINK-4705,1 53723U 22107Z   23161.74205413  .00000182  00000-0  29536-4 0  9991,2 53723  53.2178  76.4535 0001168  80.2755 279.8369 15.08836998 42547,6917.89,95.438,540.563,538.947,0.0
53723.0,STARLINK-4705,PAYLOAD,2023-06-11 11:17:47,15.0884545,0.0001188,53.2179,73.1826,101.7266,258.386,-1.3472e-05,-5.02e-06,0.0,0 STARLINK-4705,1 53723U 22107Z   23162.47068967 -.00000502  00000-0 -13472-4 0  9993,2 53723  53.2179  73.1826 0001188 101.7266 258.3860 15.08845450 43253,6917.864,95.437,540.551,538.907,0.0
53723.0,STARLINK-4705,PAYLOAD,2023-06-11 17:39:20,15.08838315,0.0001267,53.2182,71.9929,87.4836,272.6301,8.0322e-05,9.91e-06,0.0,0 STARLINK-4705,1 53723U 22107Z   23162.73565216  .00000991  00000-0  80322-4 0  9999,2 53723  53.2182  71.9929 0001267  87.4836 272.6301 15.08838315 43293,6917.886,95.438,540.627,538.874,0.0
53723.0,STARLINK-4705,PAYLOAD,2023-06-12 11:08:34,15.08838063,0.0001115,53.2173,68.7199,89.07,271.042,2.3046e-05,7.9e-07,0.0,0 STARLINK-4705,1 53723U 22107Z   23163.46429354  .00000079  00000-0  23046-4 0  9999,2 53723  53.2173  68.7199 0001115  89.0700 271.0420 15.08838063 43404,6917.886,95.438,540.523,538.98,0.0
53723.0,STARLINK-4705,PAYLOAD,2023-06-12 22:16:17,15.08825652,0.0001098,53.2173,66.6385,90.6593,269.4525,0.00012248,1.661e-05,0.0,0 STARLINK-4705,1 53723U 22107Z   23163.92797972  .00001661  00000-0  12248-3 0  9993,2 53723  53.2173  66.6385 0001098  90.6593 269.4525 15.08825652 42873,6917.924,95.438,540.549,539.03,0.0
53723.0,STARLINK-4705,PAYLOAD,2023-06-12 23:51:40,15.08837505,0.000114,53.2171,66.341,90.5599,269.5523,-1.0305e-05,-4.52e-06,0.0,0 STARLINK-4705,1 53723U 22107Z   23163.99421585 -.00000452  00000-0 -10305-4 0  9996,2 53723  53.2171  66.3410 0001140  90.5599 269.5523 15.08837505 43487,6917.888,95.438,540.542,538.964,0.0
53723.0,STARLINK-4705,PAYLOAD,2023-06-13 23:42:26,15.08838183,0.0001015,53.219,61.8801,92.865,267.2458,7.8413e-05,9.6e-06,0.0,0 STARLINK-4705,1 53723U 22107Z   23164.98781241  .00000960  00000-0  78413-4 0  9990,2 53723  53.2190  61.8801 0001015  92.8650 267.2458 15.08838183 43638,6917.886,95.438,540.453,539.049,0.0
53723.0,STARLINK-4705,PAYLOAD,2023-06-14 23:33:14,15.088358,0.0001377,53.218,57.4188,91.7605,268.3545,4.1322e-05,3.7e-06,0.0,0 STARLINK-4705,1 53723U 22107Z   23165.98141551  .00000370  00000-0  41322-4 0  9999,2 53723  53.2180  57.4188 0001377  91.7605 268.3545 15.08835800 43187,6917.893,95.438,540.711,538.806,0.0
53723.0,STARLINK-4705,PAYLOAD,2023-06-15 17:02:28,15.08840903,8.65e-05,53.2177,54.1487,79.4528,280.6562,-2.3583e-05,-6.63e-06,0.0,0 STARLINK-4705,1 53723U 22107Z   23166.71005634 -.00000663  00000-0 -23583-4 0  9998,2 53723  53.2177  54.1487 0000865  79.4528 280.6562 15.08840903 43891,6917.878,95.437,540.341,539.144,0.0
53723.0,STARLINK-4705,PAYLOAD,2023-06-15 23:24:01,15.08845671,0.0001012,53.2173,52.9598,82.7556,277.3551,1.0649e-05,-1.18e-06,0.0,0 STARLINK-4705,1 53723U 22107Z   23166.97501181 -.00000118  00000-0  10649-4 0  9997,2 53723  53.2173  52.9598 0001012  82.7556 277.3551 15.08845671 43336,6917.863,95.437,540.428,539.028,0.0
53723.0,STARLINK-4705,PAYLOAD,2023-06-16 08:56:19,15.08847932,0.0001039,53.2175,51.1755,83.7392,276.3719,2.3482e-05,8.6e-07,0.0,0 STARLINK-4705,1 53723U 22107Z   23167.37244861  .00000086  00000-0  23482-4 0  9993,2 53723  53.2175  51.1755 0001039  83.7392 276.3719 15.08847932 43991,6917.856,95.437,540.44,539.002,0.0
53723.0,STARLINK-4705,PAYLOAD,2023-06-16 16:53:15,15.08840076,0.0001207,53.218,49.692,102.0943,258.0184,6.293e-05,7.14e-06,0.0,0 STARLINK-4705,1 53723U 22107Z   23167.70365217  .00000714  00000-0  62930-4 0  9998,2 53723  53.2180  49.6920 0001207 102.0943 258.0184 15.08840076 44049,6917.88,95.438,540.58,538.91,0.0
53723.0,STARLINK-4705,PAYLOAD,2023-06-17 00:50:10,15.08847538,0.0001142,53.2188,48.2042,96.7785,263.3337,0.00011542,1.55e-05,0.0,0 STARLINK-4705,1 53723U 22107Z   23168.03484520  .00001550  00000-0  11542-3 0  9995,2 53723  53.2188  48.2042 0001142  96.7785 263.3337 15.08847538 43495,6917.857,95.437,540.512,538.932,0.0
53723.0,STARLINK-4705,PAYLOAD,2023-06-17 08:47:07,15.08828315,9.57e-05,53.2176,46.7152,91.4491,268.6611,-4.0458e-05,-9.31e-06,0.0,0 STARLINK-4705,1 53723U 22107Z   23168.36606264 -.00000931  00000-0 -40458-4 0  9995,2 53723  53.2176  46.7152 0000957  91.4491 268.6611 15.08828315 43547,6917.916,95.438,540.443,539.119,0.0
53723.0,STARLINK-4705,PAYLOAD,2023-06-17 18:19:27,15.08822594,0.0001175,53.2182,44.9335,85.4451,274.6675,-9.3307e-05,-1.772e-05,0.0,0 STARLINK-4705,1 53723U 22107Z   23168.76351253 -.00001772  00000-0 -93307-4 0  9999,2 53723  53.2182  44.9335 0001175  85.4451 274.6675 15.08822594 44203,6917.934,95.439,540.611,538.986,0.0
53723.0,STARLINK-4705,PAYLOAD,2023-06-18 00:41:00,15.08821162,0.0001227,53.2182,43.7434,93.1877,266.9255,-0.00012987,-2.353e-05,0.0,0 STARLINK-4705,1 53723U 22107Z   23169.02847713 -.00002353  00000-0 -12987-3 0  9990,2 53723  53.2182  43.7434 0001227  93.1877 266.9255 15.08821162 43641,6917.938,95.439,540.652,538.954,0.0
53723.0,STARLINK-4705,PAYLOAD,2023-06-18 08:37:55,15.08833639,0.0001001,53.218,42.2548,95.6331,264.4775,-4.5011e-05,-1.004e-05,0.0,0 STARLINK-4705,1 53723U 22107Z   23169.35966800 -.00001004  00000-0 -45011-4 0  9992,2 53723  53.2180  42.2548 0001001  95.6331 264.4775 15.08833639 43698,6917.9,95.438,540.457,539.072,0.0
53723.0,STARLINK-4705,PAYLOAD,2023-06-19 00:31:45,15.08848017,0.0001021,53.218,39.2809,92.0585,268.0524,5.8221e-05,6.39e-06,0.0,0 STARLINK-4705,1 53723U 22107Z   23170.02205704  .00000639  00000-0  58221-4 0  9995,2 53723  53.2180  39.2809 0001021  92.0585 268.0524 15.08848017 43797,6917.856,95.437,540.427,539.015,0.0
53723.0,STARLINK-4705,PAYLOAD,2023-06-19 08:28:41,15.08844421,9.74e-05,53.2178,37.7935,87.6999,272.4105,1.1443e-06,-2.7e-06,0.0,0 STARLINK-4705,1 53723U 22107Z   23170.35326067 -.00000270  00000-0  11443-5 0  9995,2 53723  53.2178  37.7935 0000974  87.6999 272.4105 15.08844421 43847,6917.867,95.437,540.406,539.058,0.0
53723.0,STARLINK-4705,PAYLOAD,2023-06-19 21:11:46,15.08837126,9.62e-05,53.2175,35.4148,96.0718,264.0383,0.00026659,3.957e-05,0.0,0 STARLINK-4705,1 53723U 22107Z   23170.88318058  .00003957  00000-0  26659-3 0  9991,2 53723  53.2175  35.4148 0000962  96.0718 264.0383 15.08837126 44520,6917.889,95.438,540.42,539.089,0.0
53723.0,STARLINK-4705,PAYLOAD,2023-06-20 08:19:28,15.08838637,6.99e-05,53.2169,33.3316,111.8594,248.2472,0.00016518,2.342e-05,0.0,0 STARLINK-4705,1 53723U 22107Z   23171.34686262  .00002342  00000-0  16518-3 0  9998,2 53723  53.2169  33.3316 0000699 111.8594 248.2472 15.08838637 43993,6917.885,95.438,540.233,539.266,0.0
